{"type": "FeatureCollection", "features": [ {"type": "Feature", "properties": {"norad_id": 62339, "name": "GPS BIII-7  (PRN 01)", "group": "gps-ops", "lat": 7.570105155458505, "lon": -12.792160388431702, "alt_km": 20152.584258619936, "timestamp": "2025-12-09T21:34:11.666500+00:00", "meta": {"OBJECT_NAME": "GPS BIII-7  (PRN 01)", "OBJECT_ID": "2024-242A", "EPOCH": "2025-12-07T21:14:38.700960", "MEAN_MOTION": 2.00567469, "ECCENTRICITY": 0.00119344, "INCLINATION": 54.9247, "RA_OF_ASC_NODE": 341.9365, "ARG_OF_PERICENTER": 343.8064, "MEAN_ANOMALY": 11.4848, "EPHEMERIS_TYPE": 0, "CLASSIFICATION_TYPE": "U", "NORAD_CAT_ID": 62339, "ELEMENT_SET_NO": 999, "REV_AT_EPOCH": 741, "BSTAR": 0, "MEAN_MOTION_DOT": -8.7e-07, "MEAN_MOTION_DDOT": 0}, "tle": {"line1": "1 62339U 24242A   25341.88517015 -.00000087  00000+0  00000+0 0  9991", "line2": "2 62339  54.9247 341.9365 0011934 343.8064  11.4848  2.00567469  7410"}}, "geometry": {"type": "Point", "coordinates": [-12.792160388431702, 7.570105155458505]}}, {"type": "Feature", "properties": {"norad_id": 64202, "name": "GPS BIII-8  (PRN 21)", "group": "gps-ops", "lat": -15.286388347993869, "lon": -130.24013972981763, "alt_km": 20189.363099787683, "timestamp": "2025-12-09T21:34:11.666514+00:00", "meta": {"OBJECT_NAME": "GPS BIII-8  (PRN 21)", "OBJECT_ID": "2025-116A", "EPOCH": "2025-12-09T02:55:25.286016", "MEAN_MOTION": 2.00558368, "ECCENTRICITY": 0.00052634, "INCLINATION": 55.1032, "RA_OF_ASC_NODE": 38.7868, "ARG_OF_PERICENTER": 307.5072, "MEAN_ANOMALY": 50.3343, "EPHEMERIS_TYPE": 0, "CLASSIFICATION_TYPE": "U", "NORAD_CAT_ID": 64202, "ELEMENT_SET_NO": 999, "REV_AT_EPOCH": 405, "BSTAR": 0, "MEAN_MOTION_DOT": -8.4e-07, "MEAN_MOTION_DDOT": 0}, "tle": {"line1": "1 64202U 25116A   25343.12182044 -.00000084  00000+0  00000+0 0  9999", "line2": "2 64202  55.1032  38.7868 0005263 307.5072  50.3343  2.00558368  4056"}}, "geometry": {"type": "Point", "coordinates": [-130.24013972981763, -15.286388347993869]}}]}